{"type": "FeatureCollection", "features": [ {"type": "Feature", "properties": {"norad_id": 35022, "name": "COSMOS 2251 DEB", "group": "cosmos-2251-debris", "lat": -24.435425467460725, "lon": 132.4501098367971, "alt_km": 680.456656693239, "timestamp": "2025-12-21T14:40:48.314626+00:00", "meta": {"OBJECT_NAME": "COSMOS 2251 DEB", "OBJECT_ID": "1993-036AGK", "EPOCH": "2025-12-15T14:45:27.251136", "MEAN_MOTION": 14.60846809, "ECCENTRICITY": 0.00465822, "INCLINATION": 74.027, "RA_OF_ASC_NODE": 316.4327, "ARG_OF_PERICENTER": 155.4398, "MEAN_ANOMALY": 204.9001, "EPHEMERIS_TYPE": 0, "CLASSIFICATION_TYPE": "U", "NORAD_CAT_ID": 35022, "ELEMENT_SET_NO": 999, "REV_AT_EPOCH": 59185, "BSTAR": 0.00033959453, "MEAN_MOTION_DOT": 1.655e-05, "MEAN_MOTION_DDOT": 0}, "tle": {"line1": "1 35022U 93036AGK 25349.61489874  .00001655  00000+0  33959-3 0  9991", "line2": "2 35022  74.0270 316.4327 0046582 155.4398 204.9001 14.60846809591850"}}, "geometry": {"type": "Point", "coordinates": [132.4501098367971, -24.435425467460725]}}, {"type": "Feature", "properties": {"norad_id": 35023, "name": "COSMOS 2251 DEB", "group": "cosmos-2251-debris", "lat": 35.357392576624925, "lon": -153.58982109494468, "alt_km": 592.3252867605843, "timestamp": "2025-12-21T14:40:48.314637+00:00", "meta": {"OBJECT_NAME": "COSMOS 2251 DEB", "OBJECT_ID": "1993-036AGL", "EPOCH": "2025-12-21T00:45:06.713280", "MEAN_MOTION": 14.95326919, "ECCENTRICITY": 0.00336566, "INCLINATION": 74.0361, "RA_OF_ASC_NODE": 195.8615, "ARG_OF_PERICENTER": 272.4538, "MEAN_ANOMALY": 241.5573, "EPHEMERIS_TYPE": 0, "CLASSIFICATION_TYPE": "U", "NORAD_CAT_ID": 35023, "ELEMENT_SET_NO": 999, "REV_AT_EPOCH": 88403, "BSTAR": 0.0008553591, "MEAN_MOTION_DOT": 9.512e-05, "MEAN_MOTION_DDOT": 0}, "tle": {"line1": "1 35023U 93036AGL 25355.03132770  .00009512  00000+0  85536-3 0  9993", "line2": "2 35023  74.0361 195.8615 0033656 272.4538 241.5573 14.95326919884034"}}, "geometry": {"type": "Point", "coordinates": [-153.58982109494468, 35.357392576624925]}}, {"type": "Feature", "properties": {"norad_id": 35025, "name": "COSMOS 2251 DEB", "group": "cosmos-2251-debris", "lat": 61.387612641505065, "lon": -166.33303722802367, "alt_km": 701.4499010348336, "timestamp": "2025-12-21T14:40:48.314646+00:00", "meta": {"OBJECT_NAME": "COSMOS 2251 DEB", "OBJECT_ID": "1993-036AGN", "EPOCH": "2025-12-19T21:24:22.873824", "MEAN_MOTION": 14.72741051, "ECCENTRICITY": 0.00855, "INCLINATION": 73.9383, "RA_OF_ASC_NODE": 48.9151, "ARG_OF_PERICENTER": 320.2115, "MEAN_ANOMALY": 39.2806, "EPHEMERIS_TYPE": 0, "CLASSIFICATION_TYPE": "U", "NORAD_CAT_ID": 35025, "ELEMENT_SET_NO": 999, "REV_AT_EPOCH": 88748, "BSTAR": 0.00026574, "MEAN_MOTION_DOT": 1.76e-05, "MEAN_MOTION_DDOT": 0}, "tle": {"line1": "1 35025U 93036AGN 25353.89193141  .00001760  00000+0  26574-3 0  9990", "line2": "2 35025  73.9383  48.9151 0085500 320.2115  39.2806 14.72741051887485"}}, "geometry": {"type": "Point", "coordinates": [-166.33303722802367, 61.387612641505065]}}, {"type": "Feature", "properties": {"norad_id": 35026, "name": "COSMOS 2251 DEB", "group": "cosmos-2251-debris", "lat": 73.3953608170468, "lon": 48.471571177871155, "alt_km": 662.4525656550404, "timestamp": "2025-12-21T14:40:48.314657+00:00", "meta": {"OBJECT_NAME": "COSMOS 2251 DEB", "OBJECT_ID": "1993-036AGP", "EPOCH": "2025-12-18T03:45:00.139104", "MEAN_MOTION": 14.53626797, "ECCENTRICITY": 0.0082422, "INCLINATION": 74.047, "RA_OF_ASC_NODE": 308.5764, "ARG_OF_PERICENTER": 60.5026, "MEAN_ANOMALY": 318.4835, "EPHEMERIS_TYPE": 0, "CLASSIFICATION_TYPE": "U", "NORAD_CAT_ID": 35026, "ELEMENT_SET_NO": 999, "REV_AT_EPOCH": 88222, "BSTAR": 6.097601e-05, "MEAN_MOTION_DOT": 2.37e-06, "MEAN_MOTION_DDOT": 0}, "tle": {"line1": "1 35026U 93036AGP 25352.15625161  .00000237  00000+0  60976-4 0  9994", "line2": "2 35026  74.0470 308.5764 0082422  60.5026 318.4835 14.53626797882224"}}, "geometry": {"type": "Point", "coordinates": [48.471571177871155, 73.3953608170468]}}, {"type": "Feature", "properties": {"norad_id": 35028, "name": "COSMOS 2251 DEB", "group": "cosmos-2251-debris", "lat": -56.66386081362164, "lon": -131.6477461718745, "alt_km": 706.1062380883259, "timestamp": "2025-12-21T14:40:48.314667+00:00", "meta": {"OBJECT_NAME": "COSMOS 2251 DEB", "OBJECT_ID": "1993-036AGR", "EPOCH": "2025-12-21T04:06:01.501344", "MEAN_MOTION": 14.56577596, "ECCENTRICITY": 0.00828284, "INCLINATION": 74.0382, "RA_OF_ASC_NODE": 254.9813, "ARG_OF_PERICENTER": 26.387, "MEAN_ANOMALY": 123.709, "EPHEMERIS_TYPE": 0, "CLASSIFICATION_TYPE": "U", "NORAD_CAT_ID": 35028, "ELEMENT_SET_NO": 999, "REV_AT_EPOCH": 88408, "BSTAR": 7.219211e-05, "MEAN_MOTION_DOT": 3.06e-06, "MEAN_MOTION_DDOT": 0}, "tle": {"line1": "1 35028U 93036AGR 25355.17085071  .00000306  00000+0  72192-4 0  9991", "line2": "2 35028  74.0382 254.9813 0082828  26.3870 123.7090 14.56577596884085"}}, "geometry": {"type": "Point", "coordinates": [-131.6477461718745, -56.66386081362164]}}, {"type": "Feature", "properties": {"norad_id": 35031, "name": "COSMOS 2251 DEB", "group": "cosmos-2251-debris", "lat": -10.801197714347854, "lon": -120.20972781772483, "alt_km": 754.8206867856125, "timestamp": "2025-12-21T14:40:48.314677+00:00", "meta": {"OBJECT_NAME": "COSMOS 2251 DEB", "OBJECT_ID": "1993-036AGU", "EPOCH": "2025-12-17T23:55:41.225088", "MEAN_MOTION": 14.38299529, "ECCENTRICITY": 0.00190755, "INCLINATION": 74.0382, "RA_OF_ASC_NODE": 249.5774, "ARG_OF_PERICENTER": 342.0186, "MEAN_ANOMALY": 18.0291, "EPHEMERIS_TYPE": 0, "CLASSIFICATION_TYPE": "U", "NORAD_CAT_ID": 35031, "ELEMENT_SET_NO": 999, "REV_AT_EPOCH": 65359, "BSTAR": 0.00013785455, "MEAN_MOTION_DOT": 3.94e-06, "MEAN_MOTION_DDOT": 0}, "tle": {"line1": "1 35031U 93036AGU 25351.99700492  .00000394  00000+0  13785-3 0  9991", "line2": "2 35031  74.0382 249.5774 0019075 342.0186  18.0291 14.38299529653593"}}, "geometry": {"type": "Point", "coordinates": [-120.20972781772483, -10.801197714347854]}}, {"type": "Feature", "properties": {"norad_id": 35032, "name": "COSMOS 2251 DEB", "group": "cosmos-2251-debris", "lat": 31.677145985667575, "lon": 159.89046860137483, "alt_km": 665.9650181445313, "timestamp": "2025-12-21T14:40:48.314687+00:00", "meta": {"OBJECT_NAME": "COSMOS 2251 DEB", "OBJECT_ID": "1993-036AGV", "EPOCH": "2025-12-20T06:50:46.349952", "MEAN_MOTION": 14.58779694, "ECCENTRICITY": 0.00678547, "INCLINATION": 73.8514, "RA_OF_ASC_NODE": 352.7435, "ARG_OF_PERICENTER": 202.7795, "MEAN_ANOMALY": 181.6184, "EPHEMERIS_TYPE": 0, "CLASSIFICATION_TYPE": "U", "NORAD_CAT_ID": 35032, "ELEMENT_SET_NO": 999, "REV_AT_EPOCH": 87784, "BSTAR": 0.00054968758, "MEAN_MOTION_DOT": 2.62e-05, "MEAN_MOTION_DDOT": 0}, "tle": {"line1": "1 35032U 93036AGV 25354.28525868  .00002620  00000+0  54969-3 0  9992", "line2": "2 35032  73.8514 352.7435 0067854 202.7795 181.6184 14.58779694877847"}}, "geometry": {"type": "Point", "coordinates": [159.89046860137483, 31.677145985667575]}}, {"type": "Feature", "properties": {"norad_id": 35033, "name": "COSMOS 2251 DEB", "group": "cosmos-2251-debris", "lat": -70.35902915008367, "lon": 106.49883565246752, "alt_km": 719.5228968788515, "timestamp": "2025-12-21T14:40:48.314697+00:00", "meta": {"OBJECT_NAME": "COSMOS 2251 DEB", "OBJECT_ID": "1993-036AGW", "EPOCH": "2025-12-19T05:07:27.625152", "MEAN_MOTION": 14.50959586, "ECCENTRICITY": 0.001448, "INCLINATION": 74.0251, "RA_OF_ASC_NODE": 164.3945, "ARG_OF_PERICENTER": 270.8601, "MEAN_ANOMALY": 89.0901, "EPHEMERIS_TYPE": 0, "CLASSIFICATION_TYPE": "U", "NORAD_CAT_ID": 35033, "ELEMENT_SET_NO": 999, "REV_AT_EPOCH": 66021, "BSTAR": 0.00048139, "MEAN_MOTION_DOT": 1.877e-05, "MEAN_MOTION_DDOT": 0}, "tle": {"line1": "1 35033U 93036AGW 25353.21351418  .00001877  00000+0  48139-3 0  9998", "line2": "2 35033  74.0251 164.3945 0014480 270.8601  89.0901 14.50959586660212"}}, "geometry": {"type": "Point", "coordinates": [106.49883565246752, -70.35902915008367]}}, {"type": "Feature", "properties": {"norad_id": 35038, "name": "COSMOS 2251 DEB", "group": "cosmos-2251-debris", "lat": 32.80298733334236, "lon": -163.92876163714865, "alt_km": 865.5291898428231, "timestamp": "2025-12-21T14:40:48.314707+00:00", "meta": {"OBJECT_NAME": "COSMOS 2251 DEB", "OBJECT_ID": "1993-036AHB", "EPOCH": "2025-12-16T02:43:57.942048", "MEAN_MOTION": 14.25166694, "ECCENTRICITY": 0.01140711, "INCLINATION": 74.1077, "RA_OF_ASC_NODE": 36.5236, "ARG_OF_PERICENTER": 19.3791, "MEAN_ANOMALY": 9.3469, "EPHEMERIS_TYPE": 0, "CLASSIFICATION_TYPE": "U", "NORAD_CAT_ID": 35038, "ELEMENT_SET_NO": 999, "REV_AT_EPOCH": 85617, "BSTAR": 0.00096319549, "MEAN_MOTION_DOT": 2.397e-05, "MEAN_MOTION_DDOT": 0}, "tle": {"line1": "1 35038U 93036AHB 25350.11386507  .00002397  00000+0  96320-3 0  9999", "line2": "2 35038  74.1077  36.5236 0114071  19.3791   9.3469 14.25166694856178"}}, "geometry": {"type": "Point", "coordinates": [-163.92876163714865, 32.80298733334236]}}, {"type": "Feature", "properties": {"norad_id": 35043, "name": "COSMOS 2251 DEB", "group": "cosmos-2251-debris", "lat": -22.735474609726506, "lon": -144.98431081399158, "alt_km": 585.5282080270717, "timestamp": "2025-12-21T14:40:48.314717+00:00", "meta": {"OBJECT_NAME": "COSMOS 2251 DEB", "OBJECT_ID": "1993-036AHG", "EPOCH": "2025-12-18T09:22:03.578880", "MEAN_MOTION": 14.77234349, "ECCENTRICITY": 0.00960967, "INCLINATION": 73.9519, "RA_OF_ASC_NODE": 34.4369, "ARG_OF_PERICENTER": 242.9214, "MEAN_ANOMALY": 116.2132, "EPHEMERIS_TYPE": 0, "CLASSIFICATION_TYPE": "U", "NORAD_CAT_ID": 35043, "ELEMENT_SET_NO": 999, "REV_AT_EPOCH": 67502, "BSTAR": 0.0030540152, "MEAN_MOTION_DOT": 0.00023411, "MEAN_MOTION_DDOT": 0}, "tle": {"line1": "1 35043U 93036AHG 25352.39031920  .00023411  00000+0  30540-2 0  9994", "line2": "2 35043  73.9519  34.4369 0096096 242.9214 116.2132 14.77234349675024"}}, "geometry": {"type": "Point", "coordinates": [-144.98431081399158, -22.735474609726506]}}]}